{"type":"FeatureCollection","features":[{"type":"Feature","properties":{"localidad":0,"nombre":null},"geometry":{"type":"Polygon","coordinates":[[[-74.15688,4.68325],[-74.15973,4.68699],[-74.17024,4.69549],[-74.1724,4.696],[-74.17222,4.69395],[-74.17127,4.6931],[-74.17013,4.68988],[-74.16764,4.68802],[-74.17109,4.68413],[-74.17369,4.68261],[-74.17485,4.67657],[-74.17151,4.67434],[-74.171,4.67718],[-74.16951,4.67536],[-74.16588,4.67818],[-74.16534,4.67578],[-74.16455,4.67567],[-74.16023,4.67831],[-74.16225,4.68101],[-74.16006,4.68296],[-74.15843,4.68199],[-74.15686,4.6784],[-74.15809,4.6771],[-74.16242,4.67529],[-74.16445,4.67111],[-74.16611,4.67327],[-74.16933,4.67214],[-74.17059,4.67074],[-74.17017,4.66926],[-74.16412,4.6673],[-74.16068,4.66712],[-74.16106,4.66473],[-74.15852,4.66365],[-74.15857,4.66274],[-74.15708,4.66153],[-74.15507,4.66309],[-74.15456,4.66427],[-74.15113,4.66417],[-74.14755,4.66227],[-74.1453,4.66194],[-74.1448,4.66123],[-74.14189,4.66297],[-74.14079,4.66266],[-74.14032,4.66366],[-74.15112,4.66799],[-74.154,4.6778],[-74.15688,4.68325]]]}},{"type":"Feature","properties":{"localidad":1,"nombre":"Usaquén"},"geometry":{"type":"MultiPolygon","coordinates":[[[[-74.02409,4.71124],[-74.0249,4.70734],[-74.02175,4.70694],[-74.02142,4.70527],[-74.02067,4.70543],[-74.02283,4.70264],[-74.02504,4.70303],[-74.0252,4.70058],[-74.02606,4.69944],[-74.02398,4.69587],[-74.02453,4.69465],[-74.02205,4.69353],[-74.02277,4.69323],[-74.02232,4.69159],[-74.02402,4.69145],[-74.02397,4.68913],[-74.02482,4.68733],[-74.02465,4.68682],[-74.02281,4.68687],[-74.02537,4.6857],[-74.02551,4.6842],[-74.02673,4.68356],[-74.02307,4.68272],[-74.02525,4.68187],[-74.02574,4.68071],[-74.0252,4.68043],[-74.0258,4.67995],[-74.02717,4.68052],[-74.02782,4.68005],[-74.02805,4.68111],[-74.02922,4.68176],[-74.02946,4.68031],[-74.03369,4.67955],[-74.0349,4.67847],[-74.0482,4.6849],[-74.05725,4.68684],[-74.03508,4.82069],[-74.03128,4.82069],[-74.03138,4.82346],[-74.0257,4.82312],[-74.02497,4.82213],[-74.02653,4.82179],[-74.02636,4.81909],[-74.03091,4.81891],[-74.03104,4.81245],[-74.02843,4.81148],[-74.02774,4.81354],[-74.02385,4.81341],[-74.02284,4.80849],[-74.0324,4.80904],[-74.03441,4.79673],[-74.03127,4.79626],[-74.03089,4.79432],[-74.0283,4.79062],[-74.0282,4.78411],[-74.0262,4.77775],[-74.02735,4.76986],[-74.02272,4.76895],[-74.02299,4.7603],[-74.02116,4.76018],[-74.02171,4.75805],[-74.02072,4.75607],[-74.0186,4.75545],[-74.02003,4.75355],[-74.01869,4.7519],[-74.01756,4.75178],[-74.01932,4.75063],[-74.01945,4.74932],[-74.01662,4.74791],[-74.01807,4.74775],[-74.01767,4.746],[-74.01969,4.7468],[-74.01764,4.74595],[-74.01828,4.74366],[-74.01796,4.74422],[-74.01697,4.74401],[-74.01686,4.74311],[-74.0147,4.74242],[-74.01563,4.74154],[-74.01885,4.74214],[-74.01894,4.74077],[-74.01753,4.73912],[-74.01798,4.73815],[-74.01739,4.73771],[-74.01824,4.73685],[-74.01249,4.73484],[-74.01345,4.73163],[-74.01154,4.73094],[-74.01371,4.72935],[-74.01363,4.72872],[-74.01593,4.72945],[-74.02107,4.73318],[-74.02116,4.73242],[-74.02017,4.73136],[-74.02049,4.7295],[-74.02145,4.72854],[-74.02143,4.72673],[-74.01937,4.7261],[-74.01994,4.72583],[-74.01957,4.72452],[-74.01893,4.72365],[-74.01812,4.72375],[-74.01955,4.72229],[-74.02171,4.72205],[-74.02238,4.72114],[-74.02241,4.71862],[-74.0207,4.71778],[-74.02163,4.71732],[-74.02145,4.71574],[-74.01975,4.71473],[-74.02094,4.71494],[-74.02153,4.71436],[-74.02308,4.71482],[-74.02371,4.71244],[-74.02309,4.71157],[-74.02409,4.71124]],[[-74.02247,4.74101],[-74.0317,4.7429],[-74.03157,4.74832],[-74.03174,4.74289],[-74.02247,4.74101]],[[-74.04977,4.71866],[-74.03262,4.71274],[-74.02916,4.71161],[-74.04977,4.71866]],[[-74.03288,4.70341],[-74.03671,4.70438],[-74.03288,4.70341],[-74.03288,4.70341]],[[-74.03311,4.69771],[-74.03304,4.69786],[-74.0329,4.70285],[-74.03311,4.69771]],[[-74.03554,4.69241],[-74.03538,4.6925],[-74.0353,4.6927],[-74.03554,4.69241]],[[-74.04061,4.76026],[-74.04081,4.76017],[-74.04044,4.75714],[-74.04061,4.76026]]],[[[-74.02253,4.76466],[-74.02004,4.76484],[-74.02249,4.7645],[-74.02253,4.76466]]]]}},{"type":"Feature","properties":{"localidad":2,"nombre":"Chapinero"},"geometry":{"type":"MultiPolygon","coordinates":[[[[-74.0489,4.64869],[-74.04693,4.64728],[-74.0477,4.6457],[-74.04926,4.64481],[-74.0484,4.64233],[-74.05088,4.64157],[-74.05252,4.64239],[-74.05269,4.63888],[-74.05217,4.63817],[-74.05395,4.63758],[-74.05653,4.63954],[-74.05731,4.63877],[-74.0567,4.63788],[-74.05654,4.63847],[-74.05307,4.63653],[-74.05364,4.63546],[-74.05438,4.63549],[-74.05696,4.63695],[-74.0568,4.63755],[-74.05801,4.63473],[-74.05582,4.63455],[-74.05604,4.6318],[-74.05768,4.63232],[-74.05765,4.63062],[-74.05818,4.63081],[-74.05775,4.63234],[-74.05863,4.63264],[-74.05929,4.62939],[-74.06057,4.62878],[-74.05481,4.62695],[-74.05554,4.62534],[-74.05786,4.62571],[-74.05525,4.6233],[-74.05533,4.62275],[-74.05666,4.62391],[-74.05838,4.62469],[-74.05722,4.62403],[-74.06047,4.62434],[-74.06242,4.62533],[-74.0652,4.62507],[-74.06841,4.6288],[-74.06413,4.65239],[-74.06251,4.65573],[-74.05725,4.68684],[-74.0482,4.6849],[-74.03491,4.67842],[-74.03639,4.67796],[-74.03695,4.67675],[-74.03669,4.67485],[-74.03921,4.6736],[-74.03876,4.67141],[-74.0386,4.67214],[-74.03714,4.67197],[-74.0379,4.66792],[-74.04236,4.66855],[-74.04142,4.66372],[-74.04303,4.66456],[-74.04471,4.66419],[-74.04402,4.65958],[-74.04581,4.65997],[-74.04671,4.65944],[-74.04695,4.65792],[-74.0463,4.65486],[-74.04555,4.6544],[-74.04746,4.65485],[-74.04835,4.65326],[-74.04775,4.65037],[-74.04612,4.64901],[-74.0489,4.64869]],[[-74.05699,4.65177],[-74.05615,4.65344],[-74.05827,4.65048],[-74.05699,4.65177]],[[-74.05369,4.65287],[-74.05453,4.65262],[-74.05471,4.65232],[-74.05369,4.65287]],[[-74.0525,4.65278],[-74.053,4.65307],[-74.05321,4.65301],[-74.0525,4.65278]],[[-74.06157,4.6267],[-74.06102,4.62593],[-74.06235,4.62875],[-74.06157,4.6267]],[[-74.06084,4.62568],[-74.05929,4.62629],[-74.0609,4.62576],[-74.06084,4.62568]]],[[[-74.0227,4.66479],[-74.02285,4.66548],[-74.02548,4.66706],[-74.02699,4.66926],[-74.02582,4.67076],[-74.02564,4.67226],[-74.02464,4.67155],[-74.02312,4.67392],[-74.00978,4.66543],[-74.0105,4.66357],[-74.01365,4.66405],[-74.01479,4.66364],[-74.01481,4.66493],[-74.01584,4.66542],[-74.01724,4.66385],[-74.01994,4.66566],[-74.02088,4.66363],[-74.02156,4.66381],[-74.02197,4.6629],[-74.02388,4.66296],[-74.02403,4.66472],[-74.0227,4.66479]]]]}},{"type":"Feature","properties":{"localidad":3,"nombre":"Santa Fe"},"geometry":{"type":"Polygon","coordinates":[[[-74.06602,4.59718],[-74.06638,4.59646],[-74.06555,4.59514],[-74.06617,4.59351],[-74.06572,4.59255],[-74.06587,4.59372],[-74.06394,4.59547],[-74.06481,4.59358],[-74.0629,4.58796],[-74.06362,4.58615],[-74.06591,4.58675],[-74.06514,4.58524],[-74.06566,4.58344],[-74.06637,4.58352],[-74.06647,4.58262],[-74.06756,4.58222],[-74.06702,4.5823],[-74.06693,4.58129],[-74.06829,4.58089],[-74.06942,4.57939],[-74.06922,4.57841],[-74.07,4.57697],[-74.07046,4.57776],[-74.07158,4.57654],[-74.07213,4.57774],[-74.07401,4.57627],[-74.07551,4.5773],[-74.07543,4.57864],[-74.07721,4.5795],[-74.08106,4.58603],[-74.08346,4.58833],[-74.089,4.59182],[-74.07654,4.60833],[-74.06989,4.62108],[-74.06841,4.6288],[-74.06517,4.62506],[-74.06247,4.62534],[-74.05963,4.6241],[-74.05722,4.62403],[-74.05516,4.62272],[-74.05727,4.62273],[-74.05731,4.62157],[-74.05836,4.62168],[-74.0589,4.62022],[-74.06079,4.6194],[-74.06057,4.61826],[-74.06229,4.61533],[-74.06333,4.61014],[-74.06342,4.60605],[-74.06208,4.6051],[-74.0611,4.60296],[-74.05929,4.60201],[-74.05909,4.60132],[-74.05976,4.60061],[-74.06134,4.59991],[-74.06211,4.60006],[-74.06346,4.599],[-74.06431,4.59946],[-74.0649,4.59891],[-74.06452,4.5974],[-74.06515,4.59709],[-74.06602,4.59718]],[[-74.07418,4.58992],[-74.07252,4.58899],[-74.07058,4.59146],[-74.06832,4.58994],[-74.06781,4.5923],[-74.06829,4.59358],[-74.06669,4.59693],[-74.06599,4.59754],[-74.06515,4.59709],[-74.06468,4.59752],[-74.06509,4.59897],[-74.06443,4.59964],[-74.06345,4.59919],[-74.06218,4.60024],[-74.05967,4.60087],[-74.05926,4.60162],[-74.06231,4.60326],[-74.0653,4.60338],[-74.06939,4.60081],[-74.07116,4.60061],[-74.07481,4.60223],[-74.07659,4.60216],[-74.08145,4.59455],[-74.08058,4.59163],[-74.07807,4.59113],[-74.07562,4.58979],[-74.07418,4.58992]],[[-74.07754,4.58792],[-74.07714,4.58567],[-74.07711,4.58575],[-74.07754,4.58792]],[[-74.06777,4.60995],[-74.06781,4.6098],[-74.0661,4.60843],[-74.06777,4.60995]]]}},{"type":"Feature","properties":{"localidad":4,"nombre":"San Cristóbal"},"geometry":{"type":"Polygon","coordinates":[[[-74.08017,4.52655],[-74.08285,4.52777],[-74.08441,4.52531],[-74.08429,4.52444],[-74.08535,4.52383],[-74.08535,4.52294],[-74.08719,4.52222],[-74.08726,4.52092],[-74.08782,4.52065],[-74.08281,4.51875],[-74.08189,4.51782],[-74.09107,4.51968],[-74.08956,4.5171],[-74.09491,4.51727],[-74.09408,4.51777],[-74.09342,4.52338],[-74.09436,4.52543],[-74.09435,4.52892],[-74.09578,4.538],[-74.097,4.53991],[-74.09781,4.53873],[-74.09854,4.53979],[-74.09881,4.54043],[-74.09781,4.5414],[-74.10045,4.54521],[-74.10263,4.54634],[-74.10198,4.54748],[-74.10263,4.54642],[-74.10318,4.54693],[-74.10176,4.55591],[-74.10418,4.56114],[-74.10627,4.5639],[-74.10467,4.56433],[-74.09458,4.5758],[-74.08493,4.58932],[-74.08106,4.58603],[-74.07926,4.5823],[-74.0776,4.58086],[-74.07721,4.5795],[-74.07543,4.57864],[-74.07557,4.57742],[-74.07473,4.5766],[-74.07401,4.57627],[-74.07289,4.57753],[-74.0728,4.5768],[-74.07473,4.57442],[-74.07529,4.57506],[-74.07614,4.57402],[-74.07533,4.57337],[-74.07582,4.57261],[-74.07532,4.57083],[-74.07418,4.57033],[-74.07433,4.56936],[-74.07173,4.57072],[-74.07009,4.57014],[-74.07017,4.56923],[-74.0709,4.5692],[-74.06843,4.56789],[-74.06907,4.56647],[-74.06806,4.56455],[-74.06934,4.56348],[-74.06982,4.56439],[-74.07179,4.56366],[-74.07253,4.5656],[-74.07447,4.56194],[-74.07535,4.56746],[-74.07761,4.56796],[-74.07794,4.56612],[-74.07532,4.56246],[-74.07703,4.56365],[-74.07751,4.5627],[-74.07693,4.56112],[-74.07914,4.55708],[-74.08112,4.55778],[-74.07996,4.55466],[-74.08113,4.55264],[-74.0761,4.54906],[-74.07546,4.54762],[-74.07654,4.54212],[-74.0757,4.54055],[-74.07759,4.53714],[-74.07721,4.53438],[-74.07846,4.53315],[-74.07962,4.53314],[-74.07988,4.53088],[-74.08055,4.53028],[-74.08165,4.53032],[-74.08184,4.52948],[-74.08234,4.52991],[-74.07994,4.52763],[-74.08017,4.52655]],[[-74.10215,4.56096],[-74.1006,4.56032],[-74.10222,4.56105],[-74.10215,4.56096]],[[-74.09854,4.55828],[-74.09965,4.55989],[-74.09973,4.55993],[-74.09854,4.55828]],[[-74.09826,4.55789],[-74.09673,4.55749],[-74.09827,4.55791],[-74.09826,4.55789]],[[-74.09045,4.55307],[-74.09197,4.55433],[-74.09339,4.55536],[-74.09045,4.55307]],[[-74.08857,4.54779],[-74.08856,4.54779],[-74.09007,4.54961],[-74.08857,4.54779]],[[-74.0879,4.5481],[-74.0879,4.5481],[-74.08812,4.548],[-74.0879,4.5481]],[[-74.08689,4.55182],[-74.08691,4.55184],[-74.08802,4.54942],[-74.08689,4.55182]],[[-74.10116,4.54881],[-74.10123,4.54869],[-74.10024,4.54775],[-74.10116,4.54881]],[[-74.08094,4.58119],[-74.08088,4.581],[-74.08075,4.58131],[-74.08094,4.58119]],[[-74.07818,4.57544],[-74.07802,4.57513],[-74.07802,4.57528],[-74.07818,4.57544]],[[-74.08092,4.57183],[-74.08257,4.57076],[-74.08592,4.56954],[-74.08542,4.56939],[-74.08118,4.57141],[-74.08092,4.57183]],[[-74.08662,4.56948],[-74.09051,4.57173],[-74.08677,4.56947],[-74.08662,4.56948]]]}},{"type":"Feature","properties":{"localidad":5,"nombre":"Usme"},"geometry":{"type":"MultiPolygon","coordinates":[[[[-74.08192,4.47311],[-74.08129,4.47428],[-74.07934,4.47505],[-74.07893,4.47245],[-74.08045,4.47115],[-74.08339,4.47308],[-74.08192,4.47311]]],[[[-74.08428,4.49764],[-74.08228,4.49488],[-74.08274,4.49418],[-74.08186,4.49383],[-74.08237,4.49295],[-74.0848,4.49283],[-74.0886,4.49392],[-74.09236,4.49307],[-74.09268,4.49127],[-74.09385,4.48997],[-74.09351,4.48923],[-74.09503,4.48768],[-74.09458,4.48693],[-74.09551,4.48458],[-74.09586,4.48099],[-74.09297,4.47628],[-74.09694,4.47596],[-74.09973,4.47802],[-74.10363,4.47761],[-74.10417,4.47639],[-74.10712,4.47473],[-74.10791,4.4753],[-74.10849,4.47494],[-74.10887,4.47431],[-74.1083,4.47206],[-74.1104,4.46939],[-74.11299,4.46872],[-74.11703,4.463],[-74.12223,4.46179],[-74.12504,4.45786],[-74.12904,4.4586],[-74.12905,4.46072],[-74.12996,4.46149],[-74.12933,4.46252],[-74.12961,4.46401],[-74.13095,4.46499],[-74.13139,4.46815],[-74.13307,4.47186],[-74.13031,4.47637],[-74.12842,4.47529],[-74.12698,4.47756],[-74.12453,4.47911],[-74.12177,4.48423],[-74.12129,4.48575],[-74.12165,4.48818],[-74.12049,4.49058],[-74.12043,4.48992],[-74.12048,4.49108],[-74.12313,4.49154],[-74.12135,4.493],[-74.12211,4.49488],[-74.12161,4.49664],[-74.1227,4.49963],[-74.1256,4.5018],[-74.12685,4.50132],[-74.12844,4.50441],[-74.12815,4.50547],[-74.12674,4.50621],[-74.12731,4.51069],[-74.12578,4.51556],[-74.12561,4.52016],[-74.12758,4.52206],[-74.12886,4.52472],[-74.12551,4.52605],[-74.12479,4.52759],[-74.12321,4.52746],[-74.12285,4.53081],[-74.12311,4.53031],[-74.12307,4.53234],[-74.12408,4.53456],[-74.1239,4.53616],[-74.12497,4.53937],[-74.12534,4.54266],[-74.12485,4.54408],[-74.12609,4.54482],[-74.12387,4.54449],[-74.12115,4.54543],[-74.11633,4.54064],[-74.11257,4.54038],[-74.11238,4.54168],[-74.10886,4.5394],[-74.10663,4.53948],[-74.10514,4.53762],[-74.10293,4.53651],[-74.10155,4.53715],[-74.10107,4.53645],[-74.10009,4.53686],[-74.09815,4.53495],[-74.09884,4.53721],[-74.09989,4.5379],[-74.10371,4.54552],[-74.10226,4.546],[-74.09975,4.54453],[-74.09781,4.5414],[-74.09881,4.54043],[-74.09831,4.53938],[-74.09781,4.53873],[-74.097,4.53991],[-74.09578,4.538],[-74.09522,4.53533],[-74.09436,4.52543],[-74.09345,4.52379],[-74.09408,4.51777],[-74.09517,4.517],[-74.08941,4.51694],[-74.08901,4.5178],[-74.08758,4.5175],[-74.08714,4.51655],[-74.08884,4.51619],[-74.0881,4.51293],[-74.08852,4.5087],[-74.08546,4.5083],[-74.08314,4.50908],[-74.08255,4.50745],[-74.08602,4.50657],[-74.08571,4.50546],[-74.08813,4.50498],[-74.08641,4.50175],[-74.08512,4.5027],[-74.08043,4.50383],[-74.07967,4.50315],[-74.07881,4.50342],[-74.07859,4.50251],[-74.08571,4.49999],[-74.08448,4.49812],[-74.08527,4.49808],[-74.08512,4.49762],[-74.08428,4.49764]],[[-74.09193,4.5],[-74.09147,4.49955],[-74.0938,4.50314],[-74.09193,4.5]],[[-74.08943,4.49756],[-74.08904,4.49756],[-74.09003,4.49814],[-74.08943,4.49756]],[[-74.12199,4.51268],[-74.12185,4.51236],[-74.12154,4.51507],[-74.12199,4.51268]],[[-74.10435,4.50559],[-74.10498,4.50641],[-74.10528,4.50642],[-74.10435,4.50559]],[[-74.09463,4.49903],[-74.09485,4.50148],[-74.09509,4.50205],[-74.09479,4.49991],[-74.09463,4.49903]],[[-74.09423,4.51032],[-74.09423,4.51032],[-74.09611,4.50963],[-74.09423,4.51032]],[[-74.11996,4.48756],[-74.12033,4.48753],[-74.12018,4.48734],[-74.11996,4.48756]],[[-74.11722,4.48778],[-74.11879,4.48765],[-74.11638,4.48747],[-74.11722,4.48778]],[[-74.11285,4.48802],[-74.11408,4.48733],[-74.11408,4.48733],[-74.11285,4.48802]],[[-74.10985,4.49065],[-74.10985,4.49064],[-74.10668,4.48731],[-74.10985,4.49065]],[[-74.10984,4.49117],[-74.10975,4.49243],[-74.10982,4.49234],[-74.10984,4.49117]],[[-74.12069,4.52823],[-74.1214,4.52935],[-74.1214,4.5292],[-74.12069,4.52823]],[[-74.11426,4.52692],[-74.11979,4.52699],[-74.11975,4.52693],[-74.11426,4.52692]],[[-74.10929,4.52897],[-74.11209,4.5295],[-74.10929,4.52897],[-74.10929,4.52897]],[[-74.10916,4.52882],[-74.10922,4.52888],[-74.10869,4.52596],[-74.10916,4.52882]],[[-74.10716,4.52294],[-74.10746,4.52352],[-74.10714,4.52234],[-74.10716,4.52294]],[[-74.10707,4.52035],[-74.10711,4.52133],[-74.10745,4.51973],[-74.10707,4.52035]],[[-74.09525,4.51374],[-74.09532,4.51375],[-74.09527,4.51372],[-74.09525,4.51374]],[[-74.09481,4.51422],[-74.09487,4.51414],[-74.0948,4.51422],[-74.09481,4.51422]],[[-74.10874,4.53173],[-74.10864,4.53167],[-74.10756,4.53203],[-74.10874,4.53173]],[[-74.11105,4.53087],[-74.11002,4.53139],[-74.1105,4.53127],[-74.11105,4.53087]]],[[[-74.08257,4.49775],[-74.08309,4.49909],[-74.08178,4.49944],[-74.08127,4.50028],[-74.07949,4.50041],[-74.07886,4.49912],[-74.08257,4.49775]]],[[[-74.10343,4.5487],[-74.10564,4.55211],[-74.10467,4.55498],[-74.10522,4.55902],[-74.10488,4.56197],[-74.10176,4.55591],[-74.10318,4.54693],[-74.10343,4.5487]]]]}},{"type":"Feature","properties":{"localidad":6,"nombre":"Tunjuelito"},"geometry":{"type":"Polygon","coordinates":[[[-74.12663,4.56649],[-74.12147,4.55563],[-74.12115,4.54543],[-74.12387,4.54449],[-74.12609,4.54482],[-74.12681,4.54552],[-74.12838,4.54502],[-74.12998,4.54604],[-74.12939,4.54679],[-74.12694,4.54722],[-74.1263,4.54612],[-74.12536,4.54751],[-74.1271,4.54962],[-74.13197,4.54955],[-74.13238,4.55048],[-74.13197,4.55264],[-74.13389,4.55519],[-74.13319,4.55622],[-74.13457,4.55635],[-74.13526,4.55714],[-74.13399,4.55746],[-74.13388,4.56071],[-74.13747,4.56235],[-74.13792,4.56344],[-74.1392,4.5637],[-74.14051,4.56507],[-74.14046,4.56833],[-74.14171,4.56885],[-74.14049,4.56928],[-74.14046,4.57047],[-74.142,4.57075],[-74.1418,4.57172],[-74.14325,4.57283],[-74.14282,4.57415],[-74.14083,4.57542],[-74.142,4.5772],[-74.14285,4.57713],[-74.14369,4.57431],[-74.14484,4.57301],[-74.14637,4.57475],[-74.14706,4.57379],[-74.1477,4.57399],[-74.14706,4.57649],[-74.14836,4.57808],[-74.14872,4.57647],[-74.14999,4.57833],[-74.14931,4.58145],[-74.14761,4.58129],[-74.14722,4.58195],[-74.14842,4.58331],[-74.15111,4.58257],[-74.15139,4.58378],[-74.15059,4.58452],[-74.15216,4.58541],[-74.15049,4.58799],[-74.15138,4.58896],[-74.15265,4.5887],[-74.15176,4.58742],[-74.15307,4.58638],[-74.15332,4.5879],[-74.15696,4.5887],[-74.1565,4.59002],[-74.15426,4.59126],[-74.15336,4.59087],[-74.15282,4.59146],[-74.15139,4.5914],[-74.15205,4.59304],[-74.15332,4.59218],[-74.15419,4.59286],[-74.15226,4.59569],[-74.14694,4.59496],[-74.14043,4.59536],[-74.12829,4.59265],[-74.12861,4.58664],[-74.13088,4.5859],[-74.12942,4.58008],[-74.12828,4.58019],[-74.12526,4.56957],[-74.12663,4.56649]],[[-74.12779,4.57026],[-74.12793,4.57034],[-74.12973,4.57055],[-74.12779,4.57026]]]}},{"type":"Feature","properties":{"localidad":7,"nombre":"Bosa"},"geometry":{"type":"Polygon","coordinates":[[[-74.17629,4.60103],[-74.17563,4.60342],[-74.17283,4.60297],[-74.17453,4.60135],[-74.17401,4.60017],[-74.17177,4.60084],[-74.17008,4.60056],[-74.17006,4.60206],[-74.1691,4.60234],[-74.16859,4.60425],[-74.16314,4.60634],[-74.15954,4.6055],[-74.15698,4.60408],[-74.15658,4.60307],[-74.15512,4.60277],[-74.15349,4.60098],[-74.15247,4.60089],[-74.15216,4.59976],[-74.16068,4.59619],[-74.16331,4.59572],[-74.17743,4.59692],[-74.18394,4.59639],[-74.20406,4.60077],[-74.20427,4.59944],[-74.21706,4.61597],[-74.21843,4.61649],[-74.21841,4.61785],[-74.21965,4.61746],[-74.22006,4.61888],[-74.22174,4.61892],[-74.22081,4.61997],[-74.2224,4.62114],[-74.22128,4.6212],[-74.22067,4.62307],[-74.22315,4.62428],[-74.22358,4.62547],[-74.22217,4.62851],[-74.22243,4.62912],[-74.22135,4.63009],[-74.21766,4.62935],[-74.21585,4.63022],[-74.2158,4.63134],[-74.21751,4.63507],[-74.21508,4.6363],[-74.2147,4.63727],[-74.21576,4.64002],[-74.22002,4.64168],[-74.22106,4.64275],[-74.22129,4.64406],[-74.21556,4.64434],[-74.21468,4.64373],[-74.21396,4.64059],[-74.20702,4.64065],[-74.20549,4.64227],[-74.20711,4.64618],[-74.2061,4.64665],[-74.20196,4.64386],[-74.20089,4.64384],[-74.2007,4.64454],[-74.2026,4.64529],[-74.20292,4.64649],[-74.20081,4.6487],[-74.19689,4.65046],[-74.19427,4.65494],[-74.19154,4.6547],[-74.18679,4.65147],[-74.18371,4.65273],[-74.18592,4.64768],[-74.1778,4.62968],[-74.17656,4.62402],[-74.17773,4.62321],[-74.17724,4.62235],[-74.17969,4.62013],[-74.17915,4.61924],[-74.1801,4.61849],[-74.18102,4.61903],[-74.18523,4.61886],[-74.18479,4.61563],[-74.18576,4.6151],[-74.18495,4.61533],[-74.18339,4.61713],[-74.18243,4.61679],[-74.18298,4.61537],[-74.18203,4.61466],[-74.17986,4.61691],[-74.1794,4.61614],[-74.17994,4.61511],[-74.1819,4.61426],[-74.18119,4.61296],[-74.17805,4.61096],[-74.17729,4.60962],[-74.17784,4.60809],[-74.17738,4.60639],[-74.17866,4.60546],[-74.17799,4.6049],[-74.17658,4.60533],[-74.17612,4.60352],[-74.17771,4.60203],[-74.17775,4.60107],[-74.17629,4.60103]],[[-74.20465,4.61677],[-74.20431,4.61764],[-74.20539,4.61548],[-74.20465,4.61677]],[[-74.20054,4.61727],[-74.2004,4.61727],[-74.2013,4.61896],[-74.20054,4.61727]],[[-74.19855,4.6189],[-74.19868,4.61864],[-74.19855,4.61735],[-74.19855,4.6189]],[[-74.19788,4.61967],[-74.19808,4.61978],[-74.19823,4.61951],[-74.19788,4.61967]],[[-74.19149,4.61824],[-74.19159,4.61831],[-74.19263,4.6184],[-74.19149,4.61824]],[[-74.19217,4.61452],[-74.19119,4.61804],[-74.19128,4.6181],[-74.19217,4.61452]],[[-74.19575,4.62887],[-74.20788,4.62364],[-74.19575,4.62887],[-74.19575,4.62887]],[[-74.20378,4.61949],[-74.20384,4.61883],[-74.2037,4.61919],[-74.20378,4.61949]]]}},{"type":"Feature","properties":{"localidad":8,"nombre":"Kennedy"},"geometry":{"type":"MultiPolygon","coordinates":[[[[-74.15247,4.60089],[-74.15349,4.60098],[-74.15512,4.60277],[-74.15658,4.60307],[-74.15698,4.60408],[-74.15954,4.6055],[-74.16314,4.60634],[-74.16859,4.60425],[-74.1691,4.60234],[-74.17006,4.60206],[-74.17008,4.60056],[-74.17177,4.60084],[-74.17401,4.60017],[-74.17453,4.60135],[-74.17289,4.60315],[-74.17554,4.60342],[-74.17595,4.60124],[-74.17757,4.60096],[-74.1777,4.60208],[-74.17623,4.60322],[-74.17611,4.6044],[-74.17658,4.60533],[-74.17861,4.60526],[-74.17847,4.60609],[-74.17738,4.60639],[-74.17784,4.60809],[-74.17729,4.60962],[-74.17836,4.61121],[-74.18119,4.61296],[-74.1819,4.61426],[-74.17994,4.61511],[-74.1794,4.61614],[-74.18021,4.61692],[-74.18203,4.61466],[-74.18298,4.61537],[-74.18237,4.61652],[-74.18275,4.61712],[-74.1851,4.61572],[-74.18523,4.61886],[-74.18102,4.61903],[-74.1801,4.61849],[-74.17915,4.61924],[-74.17969,4.62013],[-74.17724,4.62235],[-74.17773,4.62321],[-74.17656,4.62402],[-74.17706,4.62585],[-74.17064,4.62827],[-74.18214,4.64966],[-74.18018,4.65255],[-74.17658,4.65471],[-74.17458,4.65441],[-74.17413,4.65596],[-74.17237,4.65718],[-74.16937,4.65626],[-74.16748,4.65641],[-74.16633,4.65979],[-74.16471,4.65868],[-74.16348,4.65876],[-74.16254,4.66299],[-74.15857,4.66274],[-74.15708,4.66153],[-74.15507,4.66309],[-74.15456,4.66427],[-74.15113,4.66417],[-74.14755,4.66227],[-74.1453,4.66194],[-74.1448,4.66123],[-74.14127,4.663],[-74.13974,4.66061],[-74.13712,4.65885],[-74.13232,4.64889],[-74.12961,4.64869],[-74.12566,4.64524],[-74.12381,4.64087],[-74.1231,4.64103],[-74.1183,4.63741],[-74.11952,4.63611],[-74.12241,4.62903],[-74.1245,4.62392],[-74.12906,4.60933],[-74.13189,4.61107],[-74.12909,4.60925],[-74.13777,4.59489],[-74.14259,4.59547],[-74.14694,4.59496],[-74.15226,4.59569],[-74.15119,4.59657],[-74.14972,4.59565],[-74.15197,4.59871],[-74.15247,4.60089]],[[-74.13777,4.63048],[-74.1405,4.63069],[-74.12241,4.62903],[-74.13777,4.63048]],[[-74.14564,4.60627],[-74.15298,4.61703],[-74.15298,4.61703],[-74.14564,4.60627]],[[-74.16787,4.63027],[-74.1563,4.64032],[-74.15386,4.63542],[-74.15631,4.64059],[-74.16787,4.63027]],[[-74.166,4.62104],[-74.16623,4.62087],[-74.16197,4.62326],[-74.166,4.62104]],[[-74.17469,4.61453],[-74.17471,4.61452],[-74.17462,4.61459],[-74.17469,4.61453]],[[-74.17471,4.61452],[-74.17351,4.61359],[-74.17471,4.61452],[-74.17471,4.61452]],[[-74.14321,4.6193],[-74.13926,4.6185],[-74.14186,4.61913],[-74.14321,4.6193]],[[-74.13411,4.61252],[-74.13395,4.61241],[-74.13926,4.6185],[-74.13411,4.61252]]],[[[-74.17706,4.62585],[-74.1778,4.62968],[-74.18558,4.64683],[-74.18214,4.64966],[-74.17077,4.62848],[-74.17706,4.62585]]]]}},{"type":"Feature","properties":{"localidad":9,"nombre":"Fontibón"},"geometry":{"type":"Polygon","coordinates":[[[-74.1231,4.64103],[-74.12381,4.64087],[-74.12444,4.64172],[-74.12566,4.64524],[-74.12917,4.64853],[-74.13232,4.64889],[-74.13708,4.65879],[-74.13974,4.66061],[-74.14079,4.66266],[-74.14016,4.66353],[-74.15112,4.66799],[-74.154,4.6778],[-74.15823,4.68541],[-74.17024,4.69549],[-74.1724,4.696],[-74.16927,4.69932],[-74.16939,4.70105],[-74.17453,4.70061],[-74.17676,4.70176],[-74.177,4.70278],[-74.1712,4.70465],[-74.16781,4.70446],[-74.16528,4.70541],[-74.16158,4.706],[-74.16215,4.7073],[-74.16087,4.70802],[-74.15653,4.70789],[-74.15542,4.7087],[-74.15475,4.71214],[-74.15547,4.71798],[-74.12038,4.69222],[-74.1184,4.68865],[-74.12465,4.6848],[-74.13308,4.69118],[-74.12248,4.68297],[-74.1209,4.68101],[-74.10342,4.65351],[-74.10775,4.64786],[-74.11045,4.64514],[-74.1183,4.63741],[-74.1231,4.64103]],[[-74.1456,4.69045],[-74.136,4.68322],[-74.16528,4.70541],[-74.1456,4.69045]],[[-74.11045,4.64514],[-74.13464,4.67016],[-74.1351,4.67063],[-74.11045,4.64514]],[[-74.13338,4.67467],[-74.13524,4.67043],[-74.1351,4.67063],[-74.13338,4.67467]],[[-74.11219,4.66575],[-74.11219,4.66575],[-74.11905,4.67313],[-74.11219,4.66575]]]}},{"type":"Feature","properties":{"localidad":10,"nombre":"Engativá"},"geometry":{"type":"Polygon","coordinates":[[[-74.10342,4.65351],[-74.12168,4.68211],[-74.12465,4.6848],[-74.1184,4.68865],[-74.12038,4.69222],[-74.15478,4.71764],[-74.15598,4.71819],[-74.15635,4.71718],[-74.16012,4.71997],[-74.16048,4.72097],[-74.15977,4.72384],[-74.15794,4.72553],[-74.15689,4.72547],[-74.15749,4.72416],[-74.15653,4.72347],[-74.1511,4.72273],[-74.14924,4.72546],[-74.14411,4.72824],[-74.13739,4.73073],[-74.13619,4.7284],[-74.135,4.72832],[-74.13244,4.72934],[-74.13098,4.73088],[-74.12954,4.73033],[-74.12965,4.7284],[-74.12893,4.72677],[-74.12603,4.72966],[-74.12754,4.73225],[-74.12835,4.73528],[-74.12791,4.7363],[-74.12666,4.73668],[-74.12738,4.73731],[-74.12716,4.73931],[-74.12545,4.74012],[-74.12069,4.73944],[-74.1206,4.73788],[-74.11965,4.73682],[-74.1146,4.73469],[-74.11403,4.73205],[-74.11131,4.72971],[-74.10999,4.72934],[-74.10868,4.72743],[-74.1066,4.72587],[-74.10409,4.72582],[-74.10407,4.72401],[-74.10344,4.72331],[-74.10551,4.71757],[-74.10343,4.72331],[-74.10056,4.72156],[-74.09984,4.718],[-74.09668,4.71738],[-74.09535,4.71599],[-74.09344,4.71289],[-74.09335,4.71136],[-74.09225,4.7104],[-74.09104,4.71068],[-74.09049,4.70865],[-74.08968,4.70842],[-74.08974,4.70702],[-74.08799,4.70565],[-74.08837,4.69853],[-74.08589,4.69734],[-74.08543,4.69653],[-74.08467,4.69437],[-74.08109,4.69326],[-74.08028,4.69056],[-74.07733,4.68536],[-74.08518,4.67894],[-74.08935,4.67171],[-74.10342,4.65351]],[[-74.10099,4.67064],[-74.10099,4.67064],[-74.10942,4.66294],[-74.10099,4.67064]],[[-74.08916,4.69544],[-74.0892,4.69541],[-74.08543,4.69653],[-74.08916,4.69544]],[[-74.11131,4.69098],[-74.11759,4.69473],[-74.12264,4.69767],[-74.12264,4.69767],[-74.11131,4.69098]],[[-74.10773,4.6888],[-74.10783,4.68891],[-74.10894,4.68957],[-74.10773,4.6888]],[[-74.10389,4.67466],[-74.09262,4.69073],[-74.09261,4.69076],[-74.09942,4.68105],[-74.10389,4.67466]],[[-74.12182,4.69976],[-74.12186,4.69939],[-74.12174,4.69964],[-74.12182,4.69976]],[[-74.12219,4.70139],[-74.12241,4.70055],[-74.12207,4.70113],[-74.12219,4.70139]],[[-74.12488,4.7034],[-74.12236,4.70176],[-74.12243,4.70192],[-74.12488,4.7034]],[[-74.12637,4.71006],[-74.12636,4.70988],[-74.12631,4.70999],[-74.12637,4.71006]],[[-74.12741,4.71107],[-74.12705,4.71078],[-74.12732,4.71107],[-74.12741,4.71107]],[[-74.13146,4.71475],[-74.1315,4.71467],[-74.13141,4.71413],[-74.13146,4.71475]],[[-74.13133,4.71802],[-74.13033,4.71692],[-74.13044,4.71714],[-74.13133,4.71802]]]}},{"type":"Feature","properties":{"localidad":11,"nombre":"Suba"},"geometry":{"type":"MultiPolygon","coordinates":[[[[-74.05725,4.68684],[-74.06909,4.68966],[-74.07393,4.68806],[-74.07733,4.68536],[-74.08028,4.69056],[-74.08095,4.69314],[-74.08467,4.69437],[-74.08589,4.69734],[-74.08837,4.69853],[-74.08799,4.70565],[-74.08974,4.70702],[-74.08968,4.70842],[-74.09049,4.70865],[-74.09087,4.7105],[-74.09225,4.7104],[-74.09361,4.71198],[-74.09263,4.71607],[-74.09344,4.71289],[-74.09668,4.71738],[-74.09984,4.718],[-74.10056,4.72156],[-74.10214,4.7221],[-74.10407,4.72401],[-74.10409,4.72582],[-74.1066,4.72587],[-74.10868,4.72743],[-74.10999,4.72934],[-74.11131,4.72971],[-74.11403,4.73205],[-74.1146,4.73469],[-74.11965,4.73682],[-74.1206,4.73788],[-74.12069,4.73944],[-74.12613,4.74002],[-74.12742,4.73885],[-74.12738,4.73731],[-74.1288,4.73735],[-74.12965,4.73899],[-74.13199,4.74028],[-74.13007,4.74592],[-74.12741,4.74615],[-74.12557,4.74706],[-74.12586,4.74926],[-74.12758,4.74931],[-74.12725,4.75064],[-74.12428,4.75004],[-74.12338,4.74742],[-74.12268,4.74726],[-74.12524,4.75397],[-74.12024,4.7544],[-74.12124,4.75982],[-74.12013,4.76115],[-74.11683,4.76179],[-74.11541,4.76638],[-74.1157,4.76799],[-74.11714,4.76669],[-74.1183,4.76678],[-74.11774,4.76803],[-74.11469,4.77057],[-74.11434,4.77198],[-74.11661,4.77204],[-74.1151,4.77372],[-74.11391,4.7787],[-74.11719,4.7775],[-74.11435,4.78006],[-74.11471,4.78093],[-74.11713,4.78029],[-74.1172,4.7807],[-74.11437,4.78225],[-74.11475,4.78564],[-74.11225,4.78447],[-74.11232,4.78564],[-74.11435,4.78689],[-74.11295,4.79023],[-74.11004,4.79034],[-74.11055,4.78952],[-74.11239,4.78943],[-74.11162,4.78721],[-74.10805,4.78885],[-74.10762,4.79205],[-74.10525,4.79687],[-74.10317,4.79742],[-74.1028,4.79663],[-74.10386,4.79501],[-74.10276,4.79525],[-74.10071,4.79911],[-74.09794,4.7986],[-74.09607,4.79924],[-74.09588,4.79562],[-74.0935,4.79089],[-74.08718,4.79621],[-74.08726,4.79681],[-74.0897,4.79617],[-74.09157,4.79669],[-74.0908,4.79764],[-74.08928,4.7976],[-74.0886,4.79817],[-74.089,4.80139],[-74.0871,4.8017],[-74.08877,4.8029],[-74.08848,4.80331],[-74.07995,4.80851],[-74.08004,4.80999],[-74.08468,4.81212],[-74.08495,4.81298],[-74.08291,4.81364],[-74.08317,4.81433],[-74.08605,4.81506],[-74.08712,4.81602],[-74.08657,4.82103],[-74.085,4.82114],[-74.08342,4.82214],[-74.08231,4.81954],[-74.08278,4.81798],[-74.08202,4.81638],[-74.07895,4.82111],[-74.08018,4.82498],[-74.08655,4.83219],[-74.0768,4.83669],[-74.07454,4.83667],[-74.07171,4.83416],[-74.07074,4.8284],[-74.06869,4.82863],[-74.06708,4.82797],[-74.06739,4.83265],[-74.06631,4.8351],[-74.06551,4.83547],[-74.06496,4.83487],[-74.06449,4.83021],[-74.06385,4.83121],[-74.06411,4.83395],[-74.063,4.8356],[-74.06261,4.8352],[-74.06269,4.83218],[-74.06066,4.82744],[-74.06021,4.82863],[-74.05602,4.82885],[-74.05429,4.83056],[-74.0533,4.83309],[-74.0503,4.83053],[-74.04901,4.83064],[-74.04996,4.83517],[-74.04756,4.83057],[-74.04659,4.83011],[-74.04554,4.83053],[-74.04415,4.833],[-74.04115,4.82888],[-74.04078,4.8265],[-74.03501,4.82553],[-74.03553,4.82207],[-74.03553,4.82069],[-74.03508,4.8205],[-74.04668,4.75134],[-74.04869,4.73778],[-74.05725,4.68684]],[[-74.06139,4.70802],[-74.06121,4.70795],[-74.0539,4.70674],[-74.06139,4.70802]],[[-74.10574,4.76278],[-74.1057,4.76278],[-74.10499,4.76506],[-74.10574,4.76278]],[[-74.10193,4.76303],[-74.1016,4.76408],[-74.10217,4.76286],[-74.10193,4.76303]],[[-74.07707,4.75876],[-74.0769,4.7588],[-74.08457,4.75891],[-74.07707,4.75876]],[[-74.07564,4.75908],[-74.07549,4.75918],[-74.07633,4.75893],[-74.07564,4.75908]],[[-74.07098,4.76223],[-74.07284,4.76112],[-74.07352,4.76052],[-74.07098,4.76223]],[[-74.06865,4.76249],[-74.06883,4.76262],[-74.069,4.76259],[-74.06865,4.76249]],[[-74.06637,4.75906],[-74.06506,4.751],[-74.0663,4.75924],[-74.06637,4.75906]],[[-74.06434,4.72815],[-74.07501,4.73196],[-74.05724,4.72546],[-74.06434,4.72815]],[[-74.0645,4.70912],[-74.06369,4.70883],[-74.06494,4.70932],[-74.0645,4.70912]],[[-74.08871,4.71644],[-74.09196,4.71725],[-74.08972,4.71667],[-74.08871,4.71644]],[[-74.08388,4.73112],[-74.08345,4.73041],[-74.08388,4.73116],[-74.08388,4.73112]],[[-74.08411,4.73308],[-74.08403,4.73244],[-74.08403,4.73311],[-74.08411,4.73308]],[[-74.07979,4.73356],[-74.08229,4.73387],[-74.07983,4.73354],[-74.07979,4.73356]],[[-74.07828,4.73386],[-74.08129,4.7357],[-74.07685,4.73302],[-74.07828,4.73386]],[[-74.06609,4.70299],[-74.06594,4.7031],[-74.06531,4.70443],[-74.06609,4.70299]],[[-74.07064,4.70155],[-74.07069,4.70165],[-74.07278,4.70138],[-74.07064,4.70155]],[[-74.10439,4.75749],[-74.10482,4.75618],[-74.10507,4.75462],[-74.10439,4.75749]],[[-74.10587,4.74944],[-74.10613,4.74779],[-74.10601,4.74579],[-74.10587,4.74944]],[[-74.10586,4.7434],[-74.10315,4.72719],[-74.10591,4.74415],[-74.10586,4.7434]],[[-74.04569,4.82743],[-74.04368,4.82844],[-74.04602,4.82745],[-74.04569,4.82743]],[[-74.04152,4.8077],[-74.04433,4.80843],[-74.04438,4.80841],[-74.04357,4.8081],[-74.04152,4.8077]],[[-74.05356,4.7995],[-74.0491,4.79793],[-74.04857,4.80043],[-74.05293,4.80161],[-74.05356,4.7995]],[[-74.05454,4.79397],[-74.05361,4.79931],[-74.05406,4.79777],[-74.05454,4.79397]],[[-74.0624,4.78341],[-74.0613,4.78051],[-74.0595,4.78011],[-74.05931,4.78041],[-74.05851,4.7846],[-74.05886,4.78303],[-74.0624,4.78341]],[[-74.06383,4.77235],[-74.06303,4.77404],[-74.06373,4.77283],[-74.06383,4.77235]],[[-74.06285,4.77201],[-74.06282,4.77208],[-74.06383,4.77235],[-74.06285,4.77201]],[[-74.06713,4.76886],[-74.07142,4.76316],[-74.0715,4.76296],[-74.06713,4.76886]],[[-74.0582,4.7912],[-74.05964,4.79123],[-74.05963,4.79189],[-74.05818,4.79193],[-74.05809,4.79634],[-74.06068,4.79812],[-74.06254,4.79205],[-74.06069,4.79201],[-74.06112,4.78946],[-74.05823,4.78939],[-74.0582,4.7912]],[[-74.06896,4.7969],[-74.06763,4.80043],[-74.07241,4.80206],[-74.07402,4.79858],[-74.07782,4.80005],[-74.07408,4.79848],[-74.06896,4.7969]],[[-74.06571,4.79021],[-74.06785,4.79119],[-74.07025,4.78681],[-74.0684,4.78576],[-74.06571,4.79021]],[[-74.06349,4.80491],[-74.06434,4.80234],[-74.06319,4.80195],[-74.06234,4.80452],[-74.06349,4.80491]],[[-74.07639,4.80341],[-74.07572,4.80318],[-74.07487,4.80575],[-74.07603,4.80614],[-74.07639,4.80341]]],[[[-74.03036,4.80889],[-74.02991,4.8037],[-74.03147,4.7964],[-74.03441,4.79673],[-74.0324,4.80904],[-74.03036,4.80889]]],[[[-74.03553,4.82069],[-74.03501,4.82553],[-74.03332,4.82561],[-74.03152,4.82442],[-74.03132,4.82069],[-74.03553,4.82069]]]]}},{"type":"Feature","properties":{"localidad":12,"nombre":"Barrios Unidos"},"geometry":{"type":"Polygon","coordinates":[[[-74.08546,4.65483],[-74.09372,4.66607],[-74.08925,4.67189],[-74.08518,4.67894],[-74.07393,4.68806],[-74.07171,4.68917],[-74.06909,4.68966],[-74.05725,4.68684],[-74.06251,4.65573],[-74.06383,4.65331],[-74.06463,4.64965],[-74.07832,4.65199],[-74.08361,4.65335],[-74.08546,4.65483]],[[-74.06739,4.67393],[-74.06794,4.67347],[-74.05859,4.67892],[-74.06739,4.67393]],[[-74.0772,4.65978],[-74.0775,4.65849],[-74.07832,4.65199],[-74.0772,4.65978]]]}},{"type":"Feature","properties":{"localidad":13,"nombre":"Teusaquillo"},"geometry":{"type":"Polygon","coordinates":[[[-74.06463,4.64965],[-74.06971,4.62164],[-74.07283,4.61542],[-74.07883,4.62389],[-74.09145,4.62572],[-74.11045,4.64514],[-74.10775,4.64786],[-74.09372,4.66607],[-74.08581,4.65535],[-74.08361,4.65335],[-74.06463,4.64965]],[[-74.07925,4.63857],[-74.07956,4.63441],[-74.07953,4.6346],[-74.07925,4.63857]],[[-74.09223,4.6363],[-74.09784,4.64493],[-74.09245,4.63648],[-74.09223,4.6363]]]}},{"type":"Feature","properties":{"localidad":14,"nombre":"Los Mártires"},"geometry":{"type":"Polygon","coordinates":[[[-74.089,4.59182],[-74.09908,4.59492],[-74.1032,4.59466],[-74.10707,4.59824],[-74.10211,4.60201],[-74.09788,4.60655],[-74.0832,4.6247],[-74.07883,4.62389],[-74.07283,4.61542],[-74.07654,4.60833],[-74.089,4.59182]]]}},{"type":"Feature","properties":{"localidad":15,"nombre":"Antonio Nariño"},"geometry":{"type":"Polygon","coordinates":[[[-74.08493,4.58932],[-74.09458,4.5758],[-74.10249,4.58126],[-74.10888,4.58923],[-74.11007,4.58866],[-74.11686,4.58845],[-74.12447,4.58996],[-74.12803,4.59254],[-74.13075,4.59335],[-74.1209,4.59378],[-74.11463,4.59538],[-74.10707,4.59824],[-74.1032,4.59466],[-74.09908,4.59492],[-74.089,4.59182],[-74.08493,4.58932]],[[-74.0896,4.59155],[-74.08975,4.59148],[-74.09444,4.58578],[-74.0896,4.59155]]]}},{"type":"Feature","properties":{"localidad":16,"nombre":"Puente Aranda"},"geometry":{"type":"MultiPolygon","coordinates":[[[[-74.1209,4.59378],[-74.13075,4.59335],[-74.13777,4.59489],[-74.12906,4.60933],[-74.12241,4.62903],[-74.0832,4.6247],[-74.09788,4.60655],[-74.10211,4.60201],[-74.10707,4.59824],[-74.1209,4.59378]],[[-74.10585,4.61844],[-74.10585,4.61844],[-74.12906,4.60933],[-74.10585,4.61844]],[[-74.10205,4.60997],[-74.10121,4.60906],[-74.09788,4.60655],[-74.10205,4.60997]],[[-74.10521,4.61531],[-74.105,4.61487],[-74.10538,4.6162],[-74.10521,4.61531]],[[-74.10332,4.61135],[-74.10285,4.61085],[-74.10419,4.61318],[-74.10332,4.61135]]],[[[-74.09145,4.62572],[-74.12241,4.62903],[-74.11939,4.63631],[-74.11045,4.64514],[-74.09145,4.62572]]]]}},{"type":"Feature","properties":{"localidad":17,"nombre":"La Candelaria"},"geometry":{"type":"Polygon","coordinates":[[[-74.05941,4.60187],[-74.06231,4.60326],[-74.06566,4.60331],[-74.06706,4.6028],[-74.06866,4.60109],[-74.0711,4.60061],[-74.07482,4.60223],[-74.07666,4.60213],[-74.08144,4.59459],[-74.08071,4.59182],[-74.0757,4.5898],[-74.07411,4.5899],[-74.07279,4.58899],[-74.0713,4.58995],[-74.07058,4.59146],[-74.06838,4.58989],[-74.06781,4.5923],[-74.06829,4.59357],[-74.06637,4.59728],[-74.06471,4.59741],[-74.06504,4.59906],[-74.0643,4.5997],[-74.06346,4.59919],[-74.06219,4.60023],[-74.0614,4.60007],[-74.05933,4.6012],[-74.05941,4.60187]]]}},{"type":"Feature","properties":{"localidad":18,"nombre":"Rafael Uribe Uribe"},"geometry":{"type":"Polygon","coordinates":[[[-74.10463,4.55],[-74.10386,4.55],[-74.10371,4.54792],[-74.1023,4.54597],[-74.10371,4.54552],[-74.10315,4.54393],[-74.09989,4.5379],[-74.09884,4.53721],[-74.09815,4.53495],[-74.10009,4.53686],[-74.10107,4.53645],[-74.10155,4.53715],[-74.10293,4.53651],[-74.10514,4.53762],[-74.10663,4.53948],[-74.1088,4.53936],[-74.11238,4.54168],[-74.11257,4.54038],[-74.11633,4.54064],[-74.12115,4.54543],[-74.12166,4.55649],[-74.1237,4.55968],[-74.12668,4.56667],[-74.12526,4.56958],[-74.12828,4.58019],[-74.12942,4.58008],[-74.13088,4.5859],[-74.12861,4.58664],[-74.12829,4.59265],[-74.12447,4.58996],[-74.11686,4.58845],[-74.11007,4.58866],[-74.10888,4.58923],[-74.10249,4.58126],[-74.09458,4.5758],[-74.10459,4.56467],[-74.10929,4.56285],[-74.10627,4.5639],[-74.10488,4.56197],[-74.10524,4.56012],[-74.10465,4.55674],[-74.10492,4.55355],[-74.10558,4.55287],[-74.10463,4.55]],[[-74.10938,4.57828],[-74.10805,4.57866],[-74.10249,4.58126],[-74.10938,4.57828]],[[-74.11003,4.56259],[-74.10994,4.56262],[-74.11565,4.56607],[-74.11003,4.56259]]]}},{"type":"Feature","properties":{"localidad":19,"nombre":"Ciudad Bolívar"},"geometry":{"type":"Polygon","coordinates":[[[-74.13032,4.47648],[-74.13257,4.473],[-74.13312,4.47119],[-74.13141,4.46823],[-74.13093,4.46495],[-74.12961,4.46401],[-74.12933,4.46252],[-74.12996,4.46149],[-74.12904,4.4607],[-74.12942,4.45928],[-74.12911,4.45865],[-74.12504,4.45786],[-74.12223,4.46179],[-74.11703,4.463],[-74.11299,4.46872],[-74.1104,4.46939],[-74.1083,4.47206],[-74.10887,4.47431],[-74.10791,4.4753],[-74.10712,4.47473],[-74.10417,4.47639],[-74.10363,4.47761],[-74.09973,4.47802],[-74.09694,4.47596],[-74.09297,4.47628],[-74.09588,4.48155],[-74.09458,4.48693],[-74.09503,4.48768],[-74.09351,4.48923],[-74.09385,4.48997],[-74.09268,4.49127],[-74.09236,4.49307],[-74.0886,4.49392],[-74.0848,4.49283],[-74.08192,4.49336],[-74.08274,4.49418],[-74.08228,4.49488],[-74.08319,4.49555],[-74.08353,4.49688],[-74.0851,4.49758],[-74.08527,4.49808],[-74.08448,4.49812],[-74.08567,4.49994],[-74.08394,4.49745],[-74.08284,4.49704],[-74.08256,4.49591],[-74.08152,4.49582],[-74.08038,4.49348],[-74.08322,4.49164],[-74.08361,4.49019],[-74.08468,4.49035],[-74.08446,4.4886],[-74.0864,4.48805],[-74.08615,4.48702],[-74.08713,4.48626],[-74.08617,4.48559],[-74.087,4.48417],[-74.08587,4.48187],[-74.08717,4.48013],[-74.08611,4.47858],[-74.08713,4.47727],[-74.08571,4.47566],[-74.08603,4.472],[-74.08474,4.47068],[-74.08488,4.46921],[-74.08377,4.46819],[-74.08438,4.4678],[-74.08299,4.46682],[-74.08104,4.46373],[-74.08083,4.46202],[-74.07997,4.46145],[-74.0811,4.45861],[-74.08481,4.45668],[-74.08831,4.45894],[-74.09007,4.45912],[-74.09322,4.45603],[-74.09755,4.455],[-74.1015,4.45258],[-74.10365,4.45203],[-74.10495,4.45038],[-74.10579,4.44637],[-74.10946,4.44254],[-74.11017,4.43839],[-74.11204,4.43533],[-74.11308,4.4307],[-74.11287,4.41795],[-74.11439,4.41316],[-74.11315,4.40956],[-74.11472,4.4061],[-74.11467,4.39769],[-74.1141,4.3955],[-74.11308,4.39432],[-74.11377,4.3865],[-74.11122,4.38594],[-74.10505,4.37857],[-74.10286,4.37781],[-74.09949,4.37877],[-74.09854,4.37817],[-74.09868,4.37419],[-74.09526,4.36991],[-74.09445,4.36675],[-74.09467,4.36267],[-74.09776,4.35737],[-74.09712,4.35439],[-74.09861,4.35007],[-74.09821,4.34803],[-74.09889,4.34497],[-74.10243,4.33897],[-74.10528,4.33677],[-74.1043,4.33282],[-74.10696,4.32504],[-74.11105,4.32381],[-74.11203,4.32029],[-74.11433,4.31814],[-74.11411,4.31533],[-74.1148,4.31335],[-74.11908,4.31139],[-74.1244,4.30666],[-74.13001,4.30574],[-74.1324,4.30612],[-74.13748,4.30425],[-74.14453,4.2988],[-74.15796,4.28535],[-74.16049,4.28372],[-74.1699,4.28233],[-74.17247,4.28269],[-74.17805,4.28182],[-74.18545,4.28193],[-74.18823,4.28294],[-74.19071,4.28659],[-74.19497,4.29012],[-74.20019,4.28541],[-74.20196,4.28283],[-74.20494,4.27607],[-74.20584,4.26966],[-74.21224,4.27346],[-74.21619,4.27306],[-74.21672,4.27678],[-74.22114,4.28217],[-74.21612,4.28685],[-74.21502,4.29193],[-74.21544,4.29802],[-74.21432,4.30397],[-74.21615,4.31804],[-74.21845,4.32729],[-74.21798,4.33523],[-74.2198,4.34024],[-74.21954,4.34303],[-74.22072,4.35362],[-74.22019,4.35882],[-74.2211,4.36456],[-74.2172,4.36699],[-74.2122,4.37425],[-74.21421,4.37637],[-74.21078,4.38208],[-74.21051,4.38542],[-74.21296,4.39616],[-74.2104,4.3991],[-74.20778,4.40526],[-74.20818,4.40789],[-74.20408,4.41444],[-74.20398,4.41826],[-74.20342,4.41938],[-74.20061,4.42205],[-74.19884,4.42641],[-74.19424,4.42677],[-74.19402,4.42985],[-74.19503,4.43328],[-74.19475,4.43477],[-74.1909,4.4427],[-74.19051,4.44721],[-74.18743,4.45013],[-74.18622,4.45273],[-74.18692,4.45452],[-74.18645,4.45845],[-74.18349,4.46469],[-74.18309,4.46678],[-74.18363,4.46866],[-74.18287,4.47101],[-74.18361,4.47293],[-74.18315,4.47502],[-74.1822,4.47568],[-74.18258,4.48001],[-74.17803,4.48641],[-74.17926,4.49025],[-74.17878,4.49651],[-74.18153,4.5041],[-74.17339,4.50785],[-74.17617,4.51251],[-74.17916,4.51299],[-74.18148,4.51224],[-74.18223,4.51296],[-74.18368,4.52147],[-74.18325,4.52747],[-74.18808,4.53296],[-74.18351,4.53585],[-74.17773,4.53719],[-74.17376,4.54006],[-74.17322,4.54105],[-74.17408,4.54367],[-74.17522,4.54415],[-74.17638,4.54579],[-74.17394,4.54945],[-74.17402,4.55249],[-74.17471,4.55317],[-74.17691,4.55351],[-74.17638,4.56049],[-74.1778,4.56385],[-74.17782,4.56811],[-74.17852,4.57017],[-74.1755,4.57172],[-74.1753,4.57539],[-74.17596,4.57545],[-74.17611,4.57629],[-74.17784,4.57774],[-74.17939,4.57698],[-74.18092,4.58788],[-74.18265,4.59156],[-74.1838,4.5964],[-74.17743,4.59692],[-74.16701,4.5957],[-74.16068,4.59619],[-74.16197,4.59562],[-74.15216,4.59976],[-74.14967,4.59583],[-74.15125,4.59657],[-74.15419,4.59286],[-74.15332,4.59218],[-74.15205,4.59304],[-74.15139,4.5914],[-74.15282,4.59146],[-74.15336,4.59087],[-74.15426,4.59126],[-74.1565,4.59002],[-74.15696,4.5887],[-74.15332,4.5879],[-74.15307,4.58638],[-74.15176,4.58742],[-74.15265,4.5887],[-74.15138,4.58896],[-74.15049,4.58799],[-74.15216,4.58541],[-74.15059,4.58452],[-74.15139,4.58378],[-74.15111,4.58257],[-74.14842,4.58331],[-74.14722,4.58195],[-74.14761,4.58129],[-74.14931,4.58145],[-74.14999,4.57833],[-74.14872,4.57647],[-74.14836,4.57808],[-74.14706,4.57649],[-74.14772,4.57532],[-74.14745,4.57374],[-74.14651,4.5748],[-74.14484,4.57301],[-74.14369,4.57431],[-74.14385,4.57514],[-74.14304,4.57576],[-74.14262,4.57732],[-74.14096,4.57607],[-74.14089,4.57527],[-74.14282,4.57415],[-74.14325,4.57283],[-74.1418,4.57172],[-74.142,4.57075],[-74.14046,4.57047],[-74.14049,4.56928],[-74.14171,4.56885],[-74.14046,4.56833],[-74.14045,4.56496],[-74.13835,4.56363],[-74.13747,4.56235],[-74.13388,4.56071],[-74.13399,4.55746],[-74.13526,4.55714],[-74.1347,4.55642],[-74.13325,4.55632],[-74.13389,4.55519],[-74.13197,4.55264],[-74.13238,4.55048],[-74.13197,4.54955],[-74.1271,4.54962],[-74.12536,4.54751],[-74.1263,4.54612],[-74.12694,4.54722],[-74.12939,4.54679],[-74.12998,4.54604],[-74.12838,4.54502],[-74.12681,4.54552],[-74.12485,4.54408],[-74.12534,4.54266],[-74.12466,4.5375],[-74.12307,4.53234],[-74.12321,4.52746],[-74.12479,4.52759],[-74.12551,4.52605],[-74.12905,4.5244],[-74.12561,4.52016],[-74.12578,4.51556],[-74.1273,4.51002],[-74.12674,4.50621],[-74.12817,4.50545],[-74.12842,4.50434],[-74.12685,4.50132],[-74.1256,4.5018],[-74.12274,4.4997],[-74.12162,4.49667],[-74.12211,4.49488],[-74.12135,4.493],[-74.12312,4.49151],[-74.12042,4.49083],[-74.12164,4.48822],[-74.1213,4.48568],[-74.12457,4.47906],[-74.12694,4.47759],[-74.12851,4.47527],[-74.13032,4.47648]],[[-74.16112,4.58815],[-74.16098,4.58784],[-74.16197,4.59562],[-74.16112,4.58815]],[[-74.13918,4.56168],[-74.13897,4.56189],[-74.1387,4.56367],[-74.13918,4.56168]],[[-74.16445,4.54276],[-74.16469,4.54189],[-74.16334,4.54509],[-74.16445,4.54276]],[[-74.16427,4.54137],[-74.16247,4.53998],[-74.16469,4.54189],[-74.16427,4.54137]],[[-74.15128,4.53766],[-74.15159,4.53866],[-74.15132,4.53767],[-74.15128,4.53766]],[[-74.1513,4.53704],[-74.15064,4.53559],[-74.15121,4.53744],[-74.1513,4.53704]],[[-74.15072,4.53308],[-74.15043,4.53287],[-74.15098,4.53418],[-74.15072,4.53308]],[[-74.15034,4.53281],[-74.14938,4.53339],[-74.15036,4.53282],[-74.15034,4.53281]],[[-74.14969,4.53244],[-74.14911,4.53255],[-74.14919,4.5328],[-74.14969,4.53244]],[[-74.13485,4.53355],[-74.13578,4.53423],[-74.1397,4.53614],[-74.13485,4.53355]],[[-74.13248,4.52108],[-74.13267,4.52391],[-74.13267,4.52392],[-74.13248,4.52108]],[[-74.13244,4.51089],[-74.13198,4.51131],[-74.13197,4.51136],[-74.13244,4.51089]],[[-74.14774,4.49427],[-74.14762,4.49318],[-74.14776,4.49546],[-74.14774,4.49427]],[[-74.14116,4.49351],[-74.14114,4.49353],[-74.14118,4.49356],[-74.14116,4.49351]],[[-74.14468,4.4896],[-74.14467,4.4896],[-74.14386,4.49119],[-74.14468,4.4896]],[[-74.14372,4.489],[-74.14227,4.48882],[-74.14416,4.48927],[-74.14372,4.489]],[[-74.13034,4.49103],[-74.13099,4.4912],[-74.13101,4.49119],[-74.13034,4.49103]],[[-74.12814,4.48958],[-74.12998,4.49093],[-74.12999,4.49094],[-74.12814,4.48958]],[[-74.14334,4.56689],[-74.14325,4.56682],[-74.14308,4.56683],[-74.14334,4.56689]],[[-74.15426,4.575],[-74.15397,4.57449],[-74.15381,4.57437],[-74.15426,4.575]],[[-74.15516,4.56333],[-74.15508,4.56352],[-74.15601,4.56364],[-74.15516,4.56333]],[[-74.15452,4.56327],[-74.1547,4.56347],[-74.15477,4.56348],[-74.15452,4.56327]],[[-74.15608,4.55897],[-74.15202,4.55926],[-74.15196,4.55933],[-74.15608,4.55897]],[[-74.15795,4.55725],[-74.15921,4.55563],[-74.15946,4.55542],[-74.15886,4.55581],[-74.15795,4.55725]],[[-74.16618,4.55778],[-74.16484,4.5549],[-74.16471,4.55495],[-74.16618,4.55778]],[[-74.15738,4.58045],[-74.15679,4.57942],[-74.15856,4.58289],[-74.15738,4.58045]],[[-74.17488,4.57184],[-74.17329,4.57128],[-74.1746,4.57189],[-74.17488,4.57184]],[[-74.1477,4.54144],[-74.14852,4.54048],[-74.14764,4.54145],[-74.1477,4.54144]],[[-74.13667,4.5497],[-74.13779,4.5457],[-74.13705,4.54772],[-74.13667,4.5497]],[[-74.13655,4.55031],[-74.13649,4.55062],[-74.1367,4.55211],[-74.13655,4.55031]]]}},{"type":"Feature","properties":{"localidad":20,"nombre":"Sumapaz"},"geometry":{"type":"Polygon","coordinates":[[[-74.21571,4.01093],[-74.21753,4.01028],[-74.2178,4.00752],[-74.22904,3.9946],[-74.23048,3.98811],[-74.23301,3.98294],[-74.2332,3.9782],[-74.23768,3.97323],[-74.24421,3.95541],[-74.24643,3.95245],[-74.25118,3.94972],[-74.25862,3.94963],[-74.26004,3.94868],[-74.25952,3.94793],[-74.25395,3.94701],[-74.25301,3.94548],[-74.2577,3.94267],[-74.25784,3.94082],[-74.25607,3.9315],[-74.25648,3.92867],[-74.26484,3.92944],[-74.27106,3.92691],[-74.27332,3.9253],[-74.27471,3.92088],[-74.27607,3.91055],[-74.27943,3.90583],[-74.28181,3.90064],[-74.2855,3.89646],[-74.28656,3.89381],[-74.28956,3.89157],[-74.29301,3.88676],[-74.29622,3.88454],[-74.29787,3.88108],[-74.29877,3.8811],[-74.30079,3.8832],[-74.30349,3.88334],[-74.30676,3.88511],[-74.30868,3.88843],[-74.30967,3.8885],[-74.31355,3.88294],[-74.31628,3.88032],[-74.31561,3.8765],[-74.3136,3.87414],[-74.31408,3.87308],[-74.3135,3.87132],[-74.31462,3.86956],[-74.3133,3.86398],[-74.31236,3.86232],[-74.30923,3.85966],[-74.3062,3.85472],[-74.30506,3.85124],[-74.30812,3.84168],[-74.30652,3.84063],[-74.30133,3.84002],[-74.29971,3.83911],[-74.29501,3.83057],[-74.29505,3.82682],[-74.29669,3.82037],[-74.29896,3.8186],[-74.3073,3.8191],[-74.31831,3.81534],[-74.31901,3.82369],[-74.31995,3.82543],[-74.32155,3.82625],[-74.32424,3.82595],[-74.32735,3.82808],[-74.32828,3.828],[-74.32983,3.82354],[-74.33342,3.82231],[-74.33462,3.81879],[-74.33635,3.81794],[-74.33731,3.81443],[-74.3398,3.81175],[-74.3439,3.81386],[-74.34967,3.80926],[-74.35521,3.80829],[-74.35356,3.80607],[-74.35328,3.80242],[-74.35392,3.80068],[-74.3566,3.79971],[-74.35882,3.79799],[-74.36074,3.79462],[-74.36332,3.79189],[-74.36465,3.78829],[-74.36643,3.78803],[-74.36889,3.78951],[-74.37068,3.78906],[-74.37309,3.78726],[-74.37588,3.78238],[-74.37612,3.78149],[-74.37518,3.77891],[-74.37659,3.77557],[-74.38078,3.77721],[-74.38372,3.77505],[-74.39281,3.77079],[-74.38644,3.7617],[-74.38565,3.75907],[-74.38583,3.75443],[-74.38917,3.7513],[-74.39019,3.75144],[-74.39365,3.75457],[-74.39627,3.75393],[-74.3978,3.7528],[-74.39708,3.74552],[-74.39941,3.74269],[-74.40075,3.73827],[-74.40533,3.73821],[-74.40806,3.74066],[-74.41079,3.74069],[-74.41603,3.74229],[-74.42335,3.74266],[-74.4274,3.73884],[-74.43543,3.73362],[-74.43729,3.73103],[-74.44027,3.73282],[-74.44276,3.73551],[-74.44455,3.73601],[-74.44628,3.73816],[-74.44893,3.7441],[-74.44964,3.75045],[-74.44557,3.75638],[-74.44351,3.75822],[-74.43992,3.7586],[-74.43755,3.7624],[-74.43299,3.76524],[-74.43323,3.77249],[-74.43171,3.77586],[-74.43242,3.77757],[-74.43199,3.7793],[-74.43275,3.77982],[-74.4301,3.78561],[-74.42745,3.78572],[-74.42682,3.7864],[-74.42525,3.78542],[-74.42378,3.78661],[-74.42124,3.79056],[-74.42053,3.79323],[-74.41717,3.79464],[-74.41589,3.79713],[-74.41339,3.79973],[-74.41429,3.80126],[-74.41305,3.8047],[-74.40714,3.81049],[-74.40638,3.81305],[-74.4047,3.81391],[-74.40289,3.81809],[-74.39617,3.82474],[-74.39456,3.83407],[-74.39314,3.8375],[-74.39259,3.84109],[-74.39111,3.84227],[-74.39123,3.84599],[-74.38986,3.84919],[-74.39043,3.85099],[-74.3869,3.85641],[-74.38744,3.85871],[-74.386,3.86219],[-74.38728,3.86335],[-74.38735,3.86425],[-74.38604,3.86866],[-74.38448,3.86965],[-74.38357,3.86948],[-74.38282,3.8729],[-74.38122,3.87373],[-74.37958,3.87368],[-74.37812,3.87477],[-74.37722,3.87648],[-74.3754,3.87668],[-74.37335,3.87977],[-74.37175,3.88614],[-74.37035,3.88741],[-74.36802,3.89562],[-74.36516,3.89922],[-74.36397,3.90182],[-74.36304,3.90626],[-74.36355,3.90793],[-74.36138,3.9096],[-74.35982,3.91404],[-74.36075,3.91774],[-74.35893,3.92189],[-74.35737,3.92917],[-74.35694,3.93467],[-74.35488,3.94099],[-74.35475,3.9438],[-74.35674,3.94695],[-74.35627,3.94874],[-74.35674,3.95056],[-74.35586,3.95219],[-74.35677,3.95477],[-74.35639,3.95755],[-74.357,3.96122],[-74.3561,3.96127],[-74.35563,3.96394],[-74.35675,3.97033],[-74.35923,3.97311],[-74.36359,3.98049],[-74.36612,3.9819],[-74.36972,3.9826],[-74.37436,3.98588],[-74.37451,3.98678],[-74.37379,3.98852],[-74.37215,3.98926],[-74.37112,3.99073],[-74.37043,3.99522],[-74.36763,3.99978],[-74.36684,4.00242],[-74.3641,4.00493],[-74.3629,4.00945],[-74.36299,4.01973],[-74.36405,4.02119],[-74.36356,4.02397],[-74.36511,4.02946],[-74.36482,4.03313],[-74.36613,4.03448],[-74.3666,4.03623],[-74.36428,4.04129],[-74.36429,4.04337],[-74.36164,4.04815],[-74.35527,4.05197],[-74.35112,4.05768],[-74.35048,4.06126],[-74.35162,4.06749],[-74.35006,4.07177],[-74.35093,4.0752],[-74.34986,4.07667],[-74.34982,4.07843],[-74.34894,4.07863],[-74.34775,4.08107],[-74.34788,4.08291],[-74.34653,4.08414],[-74.34685,4.0861],[-74.34517,4.08837],[-74.34504,4.09416],[-74.34203,4.09895],[-74.34199,4.0999],[-74.34303,4.10135],[-74.33958,4.10326],[-74.3395,4.10514],[-74.33795,4.10621],[-74.3354,4.11001],[-74.33511,4.11373],[-74.33301,4.11536],[-74.33085,4.11964],[-74.33075,4.12327],[-74.32957,4.12568],[-74.3308,4.12925],[-74.33057,4.13014],[-74.33005,4.13088],[-74.32915,4.13068],[-74.32716,4.12881],[-74.31918,4.12572],[-74.31191,4.1169],[-74.30872,4.1148],[-74.30629,4.1109],[-74.3035,4.10842],[-74.30072,4.10728],[-74.29994,4.1056],[-74.29073,4.10325],[-74.28016,4.10206],[-74.27518,4.09934],[-74.27335,4.09913],[-74.26887,4.09409],[-74.26395,4.09124],[-74.26012,4.09081],[-74.25849,4.09172],[-74.25667,4.0939],[-74.25384,4.10014],[-74.25192,4.10208],[-74.24825,4.10176],[-74.24627,4.10244],[-74.24525,4.10464],[-74.24642,4.11416],[-74.24511,4.11875],[-74.24459,4.1273],[-74.2432,4.13079],[-74.24287,4.13366],[-74.24562,4.14087],[-74.24357,4.14796],[-74.24297,4.15261],[-74.24342,4.15819],[-74.24293,4.1628],[-74.24156,4.16916],[-74.24005,4.17272],[-74.24017,4.17642],[-74.24124,4.18099],[-74.24022,4.18646],[-74.24467,4.18933],[-74.2445,4.19492],[-74.24253,4.19793],[-74.23921,4.19622],[-74.2374,4.19646],[-74.23668,4.20002],[-74.23502,4.20222],[-74.23468,4.20588],[-74.23369,4.20743],[-74.23311,4.21209],[-74.23146,4.21728],[-74.22811,4.222],[-74.22449,4.22227],[-74.21956,4.22649],[-74.21876,4.23293],[-74.21621,4.23697],[-74.20909,4.24135],[-74.20629,4.24189],[-74.20622,4.24284],[-74.2077,4.24402],[-74.20887,4.24659],[-74.20692,4.25076],[-74.20502,4.25293],[-74.20675,4.25938],[-74.20642,4.2622],[-74.20761,4.2636],[-74.2057,4.26678],[-74.20553,4.2729],[-74.20419,4.27826],[-74.20065,4.28489],[-74.19497,4.29012],[-74.19071,4.28659],[-74.18823,4.28294],[-74.18545,4.28193],[-74.17805,4.28182],[-74.17247,4.28269],[-74.1699,4.28233],[-74.16049,4.28372],[-74.15796,4.28535],[-74.14453,4.2988],[-74.13748,4.30425],[-74.1324,4.30612],[-74.13001,4.30574],[-74.1244,4.30666],[-74.12733,4.3044],[-74.13388,4.28817],[-74.13726,4.28342],[-74.1418,4.27873],[-74.14378,4.2694],[-74.15263,4.2547],[-74.15096,4.25027],[-74.1455,4.24501],[-74.14527,4.24036],[-74.14268,4.23373],[-74.1415,4.2323],[-74.13727,4.23012],[-74.13609,4.22866],[-74.13635,4.22683],[-74.13792,4.2245],[-74.1382,4.21994],[-74.13931,4.2175],[-74.13849,4.21654],[-74.13895,4.21482],[-74.13644,4.21084],[-74.13698,4.20908],[-74.13588,4.20534],[-74.13536,4.20453],[-74.1335,4.20468],[-74.13329,4.2019],[-74.13103,4.19774],[-74.12794,4.19572],[-74.12613,4.19625],[-74.12447,4.1954],[-74.12578,4.18708],[-74.12337,4.18408],[-74.12355,4.18228],[-74.12147,4.18051],[-74.11959,4.1806],[-74.11736,4.18226],[-74.1157,4.18257],[-74.11097,4.18214],[-74.11053,4.18131],[-74.11119,4.17857],[-74.1098,4.17518],[-74.10919,4.16952],[-74.11272,4.16425],[-74.11244,4.16149],[-74.11482,4.15663],[-74.11518,4.14815],[-74.11441,4.14272],[-74.1169,4.13987],[-74.11784,4.13632],[-74.11469,4.13413],[-74.10945,4.13244],[-74.10875,4.13141],[-74.1056,4.12984],[-74.10337,4.12822],[-74.09943,4.12355],[-74.09501,4.1222],[-74.09329,4.12298],[-74.08968,4.12257],[-74.09604,4.1169],[-74.09813,4.11284],[-74.09891,4.10847],[-74.10084,4.10645],[-74.10432,4.1055],[-74.10814,4.10252],[-74.11823,4.10031],[-74.11955,4.09798],[-74.12056,4.09738],[-74.12168,4.09799],[-74.12199,4.09664],[-74.1271,4.09479],[-74.12974,4.09184],[-74.13049,4.08635],[-74.1326,4.0793],[-74.13152,4.07673],[-74.12875,4.07294],[-74.12787,4.07294],[-74.12753,4.06999],[-74.12606,4.06923],[-74.12474,4.0571],[-74.12528,4.05528],[-74.12639,4.05457],[-74.12616,4.05166],[-74.12813,4.04531],[-74.13281,4.03531],[-74.13502,4.03217],[-74.13746,4.03094],[-74.13792,4.02741],[-74.14314,4.02066],[-74.14578,4.01985],[-74.14682,4.01832],[-74.1466,4.0165],[-74.14776,4.01167],[-74.14897,4.01025],[-74.15027,4.00478],[-74.15154,4.00507],[-74.15266,4.00655],[-74.15304,4.0121],[-74.15406,4.01366],[-74.15546,4.01494],[-74.15733,4.01532],[-74.15891,4.01772],[-74.16923,4.01533],[-74.17374,4.01629],[-74.17552,4.01598],[-74.17916,4.01144],[-74.18289,4.00826],[-74.19055,4.01208],[-74.19485,4.01578],[-74.19778,4.01545],[-74.20116,4.01351],[-74.2048,4.01421],[-74.20974,4.0115],[-74.21252,4.01321],[-74.21393,4.01288],[-74.21571,4.01093]],[[-74.24946,4.06872],[-74.24786,4.07412],[-74.24701,4.07808],[-74.24946,4.06872]],[[-74.246,4.08276],[-74.24593,4.08309],[-74.24597,4.08327],[-74.246,4.08276]],[[-74.24793,4.09375],[-74.2474,4.08913],[-74.24791,4.0939],[-74.24793,4.09375]]]}}]}